#aV2007 10 20  0  0   .00000000      96 DD+AD WGS84 FIT  NGA
## 1449 518400.00000000   900.00000000 54393  .0000000000000
+   31     1  2  3  4  5  6  7  8  9 10 11 12 13 14 16 17 18
+         19 20 21 22 23 24 25 26 27 28 29 30 31 32  0  0  0
+          0  0  0  0  0  0  0  0  0  0  0  0  0  0  0  0  0
+          0  0  0  0  0  0  0  0  0  0  0  0  0  0  0  0  0
+          0  0  0  0  0  0  0  0  0  0  0  0  0  0  0  0  0
++         0  0  0  0  0  0  0  0  0  0  0  0  0  0  0  0  0
++         0  0  0  0  0  0  0  0  0  0  0  0  0  0  0  0  0
++         0  0  0  0  0  0  0  0  0  0  0  0  0  0  0  0  0
++         0  0  0  0  0  0  0  0  0  0  0  0  0  0  0  0  0
++         0  0  0  0  0  0  0  0  0  0  0  0  0  0  0  0  0
%c cc cc ccc ccc cccc cccc cccc cccc ccccc ccccc ccccc ccccc
%c cc cc ccc ccc cccc cccc cccc cccc ccccc ccccc ccccc ccccc
%f  0.0000000  0.000000000  0.00000000000  0.000000000000000
%f  0.0000000  0.000000000  0.00000000000  0.000000000000000
%i    0    0    0    0      0      0      0      0         0
%i    0    0    0    0      0      0      0      0         0
/*      NGA, ST. LOUIS,MO.                                  
/*   EPHEMERIS COMPUTED FROM  3 DAYS OF DATA                
/* CCCCCCCCCCCCCCCCCCCCCCCCCCCCCCCCCCCCCCCCCCCCCCCCCCCCCCCCC
/* CCCCCCCCCCCCCCCCCCCCCCCCCCCCCCCCCCCCCCCCCCCCCCCCCCCCCCCCC
*  2007 10 20 20 30   .00000000                                                 
P  1  18185.094023  17126.798153   9352.749937    160.948939                    
V  1 -10821.357611  -4224.859754  29375.677120       .029834                    
P  2 -12967.452352 -17017.728176 -16120.770911    145.105705                    
V  2    440.395966 -20134.248157  20842.687893       .028125                    
P  3  24444.248248  10702.529331  -2086.934254    132.482555                    
V  3  -3456.455787   2537.768770 -30599.071754       .055901                    
P  4  -6254.126963 -24746.135055  -6698.232614    -15.814062                    
V  4   2968.494763  -8696.879638  30050.095140      -.037467                    
P  5 -20838.665365  16318.977449    589.693443    483.664185                    
V  5  -1435.856925  -3459.534888  31380.023903       .277117                    
P  6 -11075.759058  11935.411197 -20805.316400    233.424124                    
V  6 -24334.843126 -11578.432778   6229.432087      -.060985                    
P  7  -8616.020469  13225.322787 -21030.751228    -44.991074                    
V  7 -25344.836536 -10889.857679   3443.970236       .130881                    
P  8    484.563239 -26262.120619  -1504.977075   -127.188239                    
V  8   2624.354280   1752.404890 -32416.619635      -.012730                    
P  9 -14031.128772   5777.644172  21168.939171     92.966588                    
V  9  -3576.154555 -28119.671241   5334.933892       .017220                    
P 10 -18153.079605  -4135.171508 -19180.589594   -114.750681                    
V 10  19648.521399 -13794.304366 -15401.518402      -.132766                    
P 11  14599.089243  -8734.022305  20230.610782     25.133742                    
V 11   7473.097364  25270.074022   5798.701905       .004745                    
P 12 -23500.555469  10822.810202   5941.589589   -345.524412                    
V 12   4657.841241  -6407.620817  30621.028743      -.012676                    
P 13   9881.805467 -11005.421172 -22163.894942    215.274049                    
V 13  24347.757374  13410.410710   4239.223224       .027710                    
P 14   8609.790887  17755.158298  17920.739328   -325.489288                    
V 14 -20416.291285  -9426.952411  19154.108872       .025122                    
P 16  13822.599186   8418.663894 -21018.914505    120.660063                    
V 16 -22124.599609  15155.097359  -8290.923347       .020200                    
P 17  -7146.964641 -17923.889309  18329.624981     51.176539                    
V 17  21392.057624   9071.850450  17089.712619      -.010471                    
P 18 -14467.866417  18789.353179  11758.740286   -230.193077                    
V 18 -14117.102952   5359.057559 -26650.569632       .020889                    
P 19  24062.685258   5761.027948   9944.048286      2.378495                    
V 19   9574.015845   8338.000499 -28106.143583       .022471                    
P 20  22724.827301 -13426.419057   2677.032481    127.583919                    
V 20  -1093.928081   4617.203359  31299.814683      -.005923                    
P 21  -7101.542661  22759.484821 -10909.837246     77.388813                    
V 21  -4088.789437 -14181.627823 -27149.415267      -.003286                    
P 22  -1625.297651  17689.584096  19896.094681    201.027202                    
V 22 -21990.843991  11879.966089 -12503.918730       .009737                    
P 23  19995.318436  -3375.927905 -17344.560065    301.749540                    
V 23  18931.797578  10838.429374  19568.443601       .035983                    
P 24 -12742.938533  14270.760513 -18350.014123     39.848328                    
V 24  -1890.125844 -23583.663037 -16564.875439       .029989                    
P 25   7943.586250 -19590.301699 -15809.786757    465.255835                    
V 25   5269.508677  20093.095269 -21605.332361       .072361                    
P 26 -24531.839783  -8503.923029   6387.364523     68.377874                    
V 26  -6902.600194  -5248.107471 -30741.720343       .127314                    
P 27   3860.961164 -23900.223267 -10021.919430    142.520896                    
V 27   4437.683235  13286.954583 -28361.372993       .024144                    
P 28   4580.649089 -18431.978391  18768.652145     -8.943231                    
V 28  20426.275618 -11189.509512 -16619.766526      -.006899                    
P 29 -24652.546055 -10144.790391   2762.469804      6.063433                    
V 29  -2202.183873  -2798.066691 -31863.494527       .000688                    
P 30 -18250.962062  18443.088971  -5745.708564     49.644852                    
V 30  -7462.372529   1502.702337  30372.031546       .012379                    
P 31   7938.560032  23601.266778  -8933.655622      5.398156                    
V 31  -1710.500491  11799.531895  29075.437408      -.012541                    
P 32   9090.922263  12268.128883  22194.325041    107.832294                    
V 32 -23495.453906  13370.562977   2420.478547       .147406                    
EOF
